STARLINK-32887          
1 62964U 25029S   25057.58336806  .00109884  00000+0  74728-3 0  9993
2 62964  53.1534 185.3863 0000511  83.3470 160.6103 15.74112379  3679
STARLINK-32836          
1 62965U 25029T   25057.58336806 -.00034345  00000+0 -23119-3 0  9993
2 62965  53.1533 185.3899 0000861  68.9791 173.0595 15.74186587  3676
STARLINK-32888          
1 62966U 25029U   25057.58336806  .00002058  00000+0  18361-4 0  9992
2 62966  53.1547 185.3779 0001067  89.8999 157.8943 15.74166109  3675
STARLINK-32897          
1 62967U 25029V   25057.58336806 -.00004404  00000+0 -25820-4 0  9990
2 62967  53.1546 185.3739 0000607  95.4005 154.3078 15.74171021  3671
STARLINK-32863          
1 62968U 25029W   25057.58336806 -.00029085  00000+0 -19494-3 0  9992
2 62968  53.1546 185.3699 0000445  85.8519 165.7532 15.74195105  3625
STARLINK-32894          
1 62969U 25029X   25057.58336806 -.00062758  00000+0 -42672-3 0  9991
2 62969  53.1544 185.3658 0000743  40.1957 213.3001 15.74226455  3679
STARLINK-32826          
1 62970U 25029Y   25057.58336806 -.00003921  00000+0 -22520-4 0  9991
2 62970  53.1543 185.3619 0000653  68.2935 187.1712 15.74166706  3673
2025-030A               
1 62971U 25030A   25057.56974092  .00000294  00000+0  26634-3 0  9994
2 62971  50.0008 171.5418 0007877 311.4511  48.5718 14.06941111  2139
2025-030B               
1 62972U 25030B   25057.57133907  .00000286  00000+0  26231-3 0  9992
2 62972  50.0023 171.5533 0008621 308.7071  51.3064 14.06748644  2135
2025-030C               
1 62973U 25030C   25057.42540567  .00000303  00000+0  27067-3 0  9999
2 62973  50.0027 172.1146 0006535 306.3968  53.6334 14.07156756  2119
2025-030D               
1 62974U 25030D   25057.56686814  .00000288  00000+0  26143-3 0  9997
2 62974  50.0033 171.5311 0007821 318.8607  41.1708 14.07207411  2135
2025-030E               
1 62975U 25030E   25057.56647246  .00000293  00000+0  26443-3 0  9993
2 62975  50.0029 171.5279 0006241 307.5479  52.4859 14.07246487  2139
2025-030F               
1 62976U 25030F   25057.56372401  .00000296  00000+0  26467-3 0  9991
2 62976  50.0050 171.5174 0007258 327.0472  32.9981 14.07498292  2139
2025-030G               
1 62977U 25030G   25057.56239055  .00000302  00000+0  26762-3 0  9995
2 62977  50.0063 171.5124 0005625 324.5591  35.4940 14.07624438  2135
2025-030H               
1 62978U 25030H   25057.56213569  .00000299  00000+0  26575-3 0  9995
2 62978  50.0067 171.5118 0006981 329.8732  30.1772 14.07647698  2132
2025-030J               
1 62979U 25030J   25057.56504618  .00000270  00000+0  25282-3 0  9997
2 62979  50.0052 171.5251 0005862 327.7994  32.2553 14.06754797  2137
CZ-8A R/B               
1 62980U 25030K   25057.57733088  .00000694  00000+0  29149-3 0  9991
2 62980  50.0051 168.8422 0118952 136.3516 224.6884 14.32669103  2179
STARLINK-11543 [DTC]    
1 62981U 25031A   25057.57227841 -.00010482  00000+0 -57508-4 0  9997
2 62981  43.0013 111.7439 0001578 288.6489  71.4210 15.77830276  3555
STARLINK-11458 [DTC]    
1 62982U 25031B   25057.58336806  .00125416  00000+0  71319-3 0  9998
2 62982  43.0013 111.6076 0001492 277.0144 173.8917 15.77850178  3562
STARLINK-11417 [DTC]    
1 62983U 25031C   25057.58336806  .00063752  00000+0  36706-3 0  9994
2 62983  43.0009 111.5383 0001397 287.8669 190.8180 15.77820524  3577
STARLINK-11544 [DTC]    
1 62984U 25031D   25057.58336806  .00033331  00000+0  19257-3 0  9997
2 62984  43.0010 111.4695 0001614 270.3060 235.9364 15.77980841  3517
STARLINK-11582 [DTC]    
1 62985U 25031E   25057.58336806  .00060901  00000+0  35084-3 0  9997
2 62985  43.0021 111.3991 0001440 276.4384 257.7502 15.77823606  3567
STARLINK-11571 [DTC]    
1 62986U 25031F   25057.58336806 -.00990477  00000+0 -57464-2 0  9995
2 62986  43.0035 111.3406 0001657 285.1392 272.5405 15.80165604  3568
STARLINK-11539 [DTC]    
1 62987U 25031G   25057.42007997 -.00120730  00000+0 -54379-3 0  9995
2 62987  43.0037 112.3037 0001791 212.7800 147.2961 15.83336663  3531
STARLINK-11542 [DTC]    
1 62988U 25031H   25057.54536304  .00044125  00000+0  18829-3 0  9999
2 62988  43.0029 111.5224 0001458 258.2199 101.8510 15.84432334  3526
STARLINK-11573 [DTC]    
1 62989U 25031J   25057.54473244  .00011867  00000+0  52635-4 0  9994
2 62989  43.0034 111.5173 0001813 261.5014  98.5653 15.84395673  3528
STARLINK-11572 [DTC]    
1 62990U 25031K   25057.54410276  .00039568  00000+0  16920-3 0  9996
2 62990  43.0038 111.5124 0001827 272.3002  87.7662 15.84428685  3555
STARLINK-11583 [DTC]    
1 62991U 25031L   25057.54355661  .00015597  00000+0  68274-4 0  9999
2 62991  43.0035 111.5084 0001683 247.5266 112.5428 15.84437022  3567
STARLINK-11570 [DTC]    
1 62992U 25031M   25057.54303037  .00105679  00000+0  44428-3 0  9995
2 62992  43.0025 111.5032 0001397 281.1532  78.9184 15.84444796  3540
STARLINK-11576 [DTC]    
1 62993U 25031N   25057.54244419  .00011145  00000+0  49574-4 0  9996
2 62993  43.0034 111.4985 0001758 288.1853  71.8828 15.84397507  3545
STARLINK-32899          
1 62994U 25031P   25057.58336806 -.01336860  00000+0 -12829-1 0  9990
2 62994  43.0001 111.6761 0001459 283.4508 138.9731 15.68638275  3503
STARLINK-32819          
1 62995U 25031Q   25057.58336806 -.01232212  00000+0 -11769-1 0  9999
2 62995  43.0002 111.6706 0001432 295.9831 128.4582 15.68521889  3502
STARLINK-32703          
1 62996U 25031R   25057.58336806 -.01345183  00000+0 -12915-1 0  9996
2 62996  43.0001 111.6606 0001309 288.7302 139.4367 15.68646870  3508
STARLINK-32881          
1 62997U 25031S   25057.58336806 -.01348263  00000+0 -12947-1 0  9994
2 62997  43.0001 111.6569 0001481 287.8368 142.2501 15.68647467  3505
STARLINK-32898          
1 62998U 25031T   25057.58336806 -.01338946  00000+0 -12849-1 0  9993
2 62998  43.0001 111.6513 0001537 288.3509 143.6524 15.68642153  3507
STARLINK-32658          
1 62999U 25031U   25057.58336806 -.01339623  00000+0 -12855-1 0  9994
2 62999  43.0002 111.6465 0001512 291.0410 142.8751 15.68644841  3509
STARLINK-32673          
1 63000U 25031V   25057.58336806 -.01339950  00000+0 -12860-1 0  9997
2 63000  43.0000 111.6413 0001451 288.0893 147.7484 15.68642697  2522
STARLINK-32437          
1 63001U 25031W   25057.58336806 -.01316302  00000+0 -12664-1 0  9996
2 63001  43.0002 111.6660 0001442 303.0387 123.4107 15.68531520  2496
2025-009DM              
1 63002U 25009DM  25057.30477448  .00046660  00000+0  22316-2 0  9990
2 63002  97.4506 139.3240 0002166 104.3040 255.8434 15.18828912 64087
FOSSASAT-2E20 (TAT-O)   
1 63003U 25009DN  25057.56591192  .00007865  00000+0  38830-3 0  9995
2 63003  97.3615 139.2038 0003612 187.4558 172.6623 15.18142839 64123
BLUEBON                 
1 63004U 25009DP  25057.48121700  .00091266  00000+0  40940-2 0  9993
2 63004  97.4523 139.5548 0001026 130.4783 229.6542 15.20810767  6468
STARLINK-11448 [DTC]    
1 63005U 25032A   25057.58336806 -.01023593  00000+0 -57116-2 0  9990
2 63005  43.0062 306.2308 0001261 253.4039 310.0717 15.81092612  3028
STARLINK-11553 [DTC]    
1 63006U 25032B   25057.58336806 -.00968029  00000+0 -47834-2 0  9998
2 63006  43.0061 306.2052 0001603 272.5589 300.9897 15.83509858  3020
STARLINK-11526 [DTC]    
1 63007U 25032C   25057.58336806  .00107387  00000+0  45493-3 0  9999
2 63007  43.0061 306.1985 0001683 261.9639 314.2470 15.84278570  3021
STARLINK-11405 [DTC]    
1 63008U 25032D   25057.58336806 -.00003207  00000+0 -11264-4 0  9998
2 63008  43.0060 306.1911 0001905 269.4304 309.5954 15.84379648  2862
STARLINK-11586 [DTC]    
1 63009U 25032E   25057.58336806  .00184580  00000+0  77182-3 0  9991
2 63009  43.0059 306.1861 0002031 262.4838 318.5843 15.84320153  3024
STARLINK-11574 [DTC]    
1 63010U 25032F   25057.58336806 -.00184127  00000+0 -79162-3 0  9992
2 63010  43.0059 306.1814 0001821 256.6485 326.2997 15.84492747  3028
STARLINK-11580 [DTC]    
1 63011U 25032G   25057.58336806  .00059887  00000+0  25499-3 0  9999
2 63011  43.0060 306.1745 0002059 247.6799 337.9132 15.84371048  2812
STARLINK-11449 [DTC]    
1 63012U 25032H   25057.58336806  .00057894  00000+0  24664-3 0  9999
2 63012  43.0060 306.1688 0001633 265.5519 322.2830 15.84371593  3026
STARLINK-11577 [DTC]    
1 63013U 25032J   25057.58336806  .00106081  00000+0  44877-3 0  9991
2 63013  43.0057 306.1625 0001377 262.5945 327.7681 15.84312567  3029
STARLINK-11578 [DTC]    
1 63014U 25032K   25057.58336806 -.00116383  00000+0 -49465-3 0  9998
2 63014  43.0058 306.1565 0001637 259.8203 332.9514 15.84536063  2974
STARLINK-11541 [DTC]    
1 63015U 25032L   25057.58336806 -.00103110  00000+0 -43852-3 0  9997
2 63015  43.0055 306.1507 0001527 290.7883 304.0338 15.84478951  3026
STARLINK-11545 [DTC]    
1 63016U 25032M   25057.58336806 -.00053867  00000+0 -22715-3 0  9996
2 63016  43.0057 306.1443 0001396 286.0952 311.4794 15.84436948  3025
STARLINK-11400 [DTC]    
1 63017U 25032N   25057.58336806  .00032819  00000+0  14138-3 0  9999
2 63017  43.0054 306.1370 0001646 266.7059 333.5155 15.84350111  3026
STARLINK-32870          
1 63018U 25032P   25057.58336806 -.00978932  00000+0 -55820-2 0  9999
2 63018  43.0050 306.1636 0001805 252.7368 336.8781 15.80506018  3030
STARLINK-32872          
1 63019U 25032Q   25057.58336806 -.00982202  00000+0 -55998-2 0  9991
2 63019  43.0049 306.1584 0001967 253.4953 338.0997 15.80516002  3035
STARLINK-32677          
1 63020U 25032R   25057.58336806 -.00991088  00000+0 -56504-2 0  9999
2 63020  43.0048 306.1537 0001772 253.4394 340.0159 15.80541651  3038
STARLINK-32929          
1 63021U 25032S   25057.58336806 -.00995110  00000+0 -56779-2 0  9994
2 63021  43.0048 306.1480 0001739 250.3173 345.3149 15.80535247  3031
STARLINK-32944          
1 63022U 25032T   25057.58336806 -.01001597  00000+0 -57206-2 0  9999
2 63022  43.0050 306.1427 0001945 251.9035 345.9325 15.80528610  3037
STARLINK-32943          
1 63023U 25032U   25057.58336806 -.01011431  00000+0 -57796-2 0  9992
2 63023  43.0049 306.1378 0001800 247.8849 351.9079 15.80545572  3037
